{"type": "FeatureCollection", "features": [ {"type": "Feature", "properties": {"norad_id": 66979, "name": "STARLINK-36107", "group": "last-30-days", "lat": -0.9139386745535552, "lon": -95.30614070934048, "alt_km": 386.47714943715346, "timestamp": "2025-12-26T10:30:48.977025+00:00", "meta": {"OBJECT_NAME": "STARLINK-36107", "OBJECT_ID": "2025-288W", "EPOCH": "2025-12-26T04:00:01.998720", "MEAN_MOTION": 15.61567931, "ECCENTRICITY": 0.0001274, "INCLINATION": 42.9999, "RA_OF_ASC_NODE": 85.3256, "ARG_OF_PERICENTER": 277.2032, "MEAN_ANOMALY": 177.219, "EPHEMERIS_TYPE": 0, "CLASSIFICATION_TYPE": "U", "NORAD_CAT_ID": 66979, "ELEMENT_SET_NO": 999, "REV_AT_EPOCH": 398, "BSTAR": -0.025298, "MEAN_MOTION_DOT": -0.01965543, "MEAN_MOTION_DDOT": 0}, "tle": {"line1": "1 66979U 25288W   25360.16668980 -.01965543  00000+0 -25298-1 0  9993", "line2": "2 66979  42.9999  85.3256 0001274 277.2032 177.2190 15.61567931  3988"}}, "geometry": {"type": "Point", "coordinates": [-95.30614070934048, -0.9139386745535552]}}, {"type": "Feature", "properties": {"norad_id": 66980, "name": "STARLINK-36086", "group": "last-30-days", "lat": -2.2198822432459018, "lon": -93.90813031013482, "alt_km": 386.66341225704764, "timestamp": "2025-12-26T10:30:48.977035+00:00", "meta": {"OBJECT_NAME": "STARLINK-36086", "OBJECT_ID": "2025-288X", "EPOCH": "2025-12-26T04:00:01.998720", "MEAN_MOTION": 15.61566347, "ECCENTRICITY": 0.0001263, "INCLINATION": 43.0001, "RA_OF_ASC_NODE": 85.3204, "ARG_OF_PERICENTER": 279.8736, "MEAN_ANOMALY": 176.4661, "EPHEMERIS_TYPE": 0, "CLASSIFICATION_TYPE": "U", "NORAD_CAT_ID": 66980, "ELEMENT_SET_NO": 999, "REV_AT_EPOCH": 398, "BSTAR": -0.025287, "MEAN_MOTION_DOT": -0.01964686, "MEAN_MOTION_DDOT": 0}, "tle": {"line1": "1 66980U 25288X   25360.16668980 -.01964686  00000+0 -25287-1 0  9990", "line2": "2 66980  43.0001  85.3204 0001263 279.8736 176.4661 15.61566347  3980"}}, "geometry": {"type": "Point", "coordinates": [-93.90813031013482, -2.2198822432459018]}}, {"type": "Feature", "properties": {"norad_id": 66981, "name": "STARLINK-36142", "group": "last-30-days", "lat": -3.5244846529953975, "lon": -92.50702919236524, "alt_km": 386.7834949145572, "timestamp": "2025-12-26T10:30:48.977045+00:00", "meta": {"OBJECT_NAME": "STARLINK-36142", "OBJECT_ID": "2025-288Y", "EPOCH": "2025-12-26T04:00:01.998720", "MEAN_MOTION": 15.61566128, "ECCENTRICITY": 0.0001274, "INCLINATION": 42.9999, "RA_OF_ASC_NODE": 85.3158, "ARG_OF_PERICENTER": 279.4088, "MEAN_ANOMALY": 178.8475, "EPHEMERIS_TYPE": 0, "CLASSIFICATION_TYPE": "U", "NORAD_CAT_ID": 66981, "ELEMENT_SET_NO": 999, "REV_AT_EPOCH": 398, "BSTAR": -0.025273, "MEAN_MOTION_DOT": -0.01963755, "MEAN_MOTION_DDOT": 0}, "tle": {"line1": "1 66981U 25288Y   25360.16668980 -.01963755  00000+0 -25273-1 0  9992", "line2": "2 66981  42.9999  85.3158 0001274 279.4088 178.8475 15.61566128  3987"}}, "geometry": {"type": "Point", "coordinates": [-92.50702919236524, -3.5244846529953975]}}, {"type": "Feature", "properties": {"norad_id": 66982, "name": "STARLINK-36113", "group": "last-30-days", "lat": -4.82779247632216, "lon": -91.10170043059999, "alt_km": 386.90587892221356, "timestamp": "2025-12-26T10:30:48.977055+00:00", "meta": {"OBJECT_NAME": "STARLINK-36113", "OBJECT_ID": "2025-288Z", "EPOCH": "2025-12-26T04:00:01.998720", "MEAN_MOTION": 15.61569992, "ECCENTRICITY": 0.000129, "INCLINATION": 42.9999, "RA_OF_ASC_NODE": 85.3106, "ARG_OF_PERICENTER": 279.2383, "MEAN_ANOMALY": 180.9342, "EPHEMERIS_TYPE": 0, "CLASSIFICATION_TYPE": "U", "NORAD_CAT_ID": 66982, "ELEMENT_SET_NO": 999, "REV_AT_EPOCH": 398, "BSTAR": -0.025354, "MEAN_MOTION_DOT": -0.01969578, "MEAN_MOTION_DDOT": 0}, "tle": {"line1": "1 66982U 25288Z   25360.16668980 -.01969578  00000+0 -25354-1 0  9992", "line2": "2 66982  42.9999  85.3106 0001290 279.2383 180.9342 15.61569992  3984"}}, "geometry": {"type": "Point", "coordinates": [-91.10170043059999, -4.82779247632216]}}, {"type": "Feature", "properties": {"norad_id": 66983, "name": "STARLINK-36145", "group": "last-30-days", "lat": -7.424083959426429, "lon": -88.27307568342786, "alt_km": 387.1201173176605, "timestamp": "2025-12-26T10:30:48.977065+00:00", "meta": {"OBJECT_NAME": "STARLINK-36145", "OBJECT_ID": "2025-288AA", "EPOCH": "2025-12-26T04:00:01.998720", "MEAN_MOTION": 15.6157064, "ECCENTRICITY": 0.0001296, "INCLINATION": 42.9998, "RA_OF_ASC_NODE": 85.3012, "ARG_OF_PERICENTER": 278.3398, "MEAN_ANOMALY": 185.6665, "EPHEMERIS_TYPE": 0, "CLASSIFICATION_TYPE": "U", "NORAD_CAT_ID": 66983, "ELEMENT_SET_NO": 999, "REV_AT_EPOCH": 398, "BSTAR": -0.025331, "MEAN_MOTION_DOT": -0.01968047, "MEAN_MOTION_DDOT": 0}, "tle": {"line1": "1 66983U 25288AA  25360.16668980 -.01968047  00000+0 -25331-1 0  9998", "line2": "2 66983  42.9998  85.3012 0001296 278.3398 185.6665 15.61570640  3984"}}, "geometry": {"type": "Point", "coordinates": [-88.27307568342786, -7.424083959426429]}}, {"type": "Feature", "properties": {"norad_id": 66984, "name": "STARLINK-35591", "group": "last-30-days", "lat": -6.128583940498716, "lon": -89.69051805865813, "alt_km": 386.9917191707036, "timestamp": "2025-12-26T10:30:48.977077+00:00", "meta": {"OBJECT_NAME": "STARLINK-35591", "OBJECT_ID": "2025-288AB", "EPOCH": "2025-12-26T04:00:01.998720", "MEAN_MOTION": 15.61568385, "ECCENTRICITY": 0.0001236, "INCLINATION": 43, "RA_OF_ASC_NODE": 85.3054, "ARG_OF_PERICENTER": 277.6382, "MEAN_ANOMALY": 184.4525, "EPHEMERIS_TYPE": 0, "CLASSIFICATION_TYPE": "U", "NORAD_CAT_ID": 66984, "ELEMENT_SET_NO": 999, "REV_AT_EPOCH": 398, "BSTAR": -0.025299, "MEAN_MOTION_DOT": -0.01965648, "MEAN_MOTION_DDOT": 0}, "tle": {"line1": "1 66984U 25288AB  25360.16668980 -.01965648  00000+0 -25299-1 0  9996", "line2": "2 66984  43.0000  85.3054 0001236 277.6382 184.4525 15.61568385  3981"}}, "geometry": {"type": "Point", "coordinates": [-89.69051805865813, -6.128583940498716]}}, {"type": "Feature", "properties": {"norad_id": 66985, "name": "STARLINK-36103", "group": "last-30-days", "lat": -8.71541317660092, "lon": -86.84802620282366, "alt_km": 387.24691741009974, "timestamp": "2025-12-26T10:30:48.977090+00:00", "meta": {"OBJECT_NAME": "STARLINK-36103", "OBJECT_ID": "2025-288AC", "EPOCH": "2025-12-26T04:00:01.998720", "MEAN_MOTION": 15.61569962, "ECCENTRICITY": 0.0001304, "INCLINATION": 43, "RA_OF_ASC_NODE": 85.2959, "ARG_OF_PERICENTER": 279.0217, "MEAN_ANOMALY": 186.9022, "EPHEMERIS_TYPE": 0, "CLASSIFICATION_TYPE": "U", "NORAD_CAT_ID": 66985, "ELEMENT_SET_NO": 999, "REV_AT_EPOCH": 398, "BSTAR": -0.025328, "MEAN_MOTION_DOT": -0.01967777, "MEAN_MOTION_DDOT": 0}, "tle": {"line1": "1 66985U 25288AC  25360.16668980 -.01967777  00000+0 -25328-1 0  9995", "line2": "2 66985  43.0000  85.2959 0001304 279.0217 186.9022 15.61569962  3985"}}, "geometry": {"type": "Point", "coordinates": [-86.84802620282366, -8.71541317660092]}}, {"type": "Feature", "properties": {"norad_id": 66986, "name": "STARLINK-36135", "group": "last-30-days", "lat": -9.99973057171527, "lon": -85.41495121016928, "alt_km": 387.4087146799793, "timestamp": "2025-12-26T10:30:48.977100+00:00", "meta": {"OBJECT_NAME": "STARLINK-36135", "OBJECT_ID": "2025-288AD", "EPOCH": "2025-12-26T04:00:01.998720", "MEAN_MOTION": 15.61567613, "ECCENTRICITY": 0.0001333, "INCLINATION": 42.9997, "RA_OF_ASC_NODE": 85.2904, "ARG_OF_PERICENTER": 281.7939, "MEAN_ANOMALY": 186.046, "EPHEMERIS_TYPE": 0, "CLASSIFICATION_TYPE": "U", "NORAD_CAT_ID": 66986, "ELEMENT_SET_NO": 999, "REV_AT_EPOCH": 398, "BSTAR": -0.025272, "MEAN_MOTION_DOT": -0.01963785, "MEAN_MOTION_DDOT": 0}, "tle": {"line1": "1 66986U 25288AD  25360.16668980 -.01963785  00000+0 -25272-1 0  9999", "line2": "2 66986  42.9997  85.2904 0001333 281.7939 186.0460 15.61567613  3980"}}, "geometry": {"type": "Point", "coordinates": [-85.41495121016928, -9.99973057171527]}}, {"type": "Feature", "properties": {"norad_id": 66987, "name": "STARLINK-36147", "group": "last-30-days", "lat": -11.28099155670767, "lon": -83.96526614903279, "alt_km": 387.4935505529047, "timestamp": "2025-12-26T10:30:48.977111+00:00", "meta": {"OBJECT_NAME": "STARLINK-36147", "OBJECT_ID": "2025-288AE", "EPOCH": "2025-12-26T04:00:01.998720", "MEAN_MOTION": 15.61571475, "ECCENTRICITY": 0.0001172, "INCLINATION": 42.9997, "RA_OF_ASC_NODE": 85.2866, "ARG_OF_PERICENTER": 280.3936, "MEAN_ANOMALY": 189.3626, "EPHEMERIS_TYPE": 0, "CLASSIFICATION_TYPE": "U", "NORAD_CAT_ID": 66987, "ELEMENT_SET_NO": 999, "REV_AT_EPOCH": 398, "BSTAR": -0.025379, "MEAN_MOTION_DOT": -0.01971271, "MEAN_MOTION_DDOT": 0}, "tle": {"line1": "1 66987U 25288AE  25360.16668980 -.01971271  00000+0 -25379-1 0  9997", "line2": "2 66987  42.9997  85.2866 0001172 280.3936 189.3626 15.61571475  3982"}}, "geometry": {"type": "Point", "coordinates": [-83.96526614903279, -11.28099155670767]}}, {"type": "Feature", "properties": {"norad_id": 66988, "name": "YAOGAN-47", "group": "last-30-days", "lat": -2.9631907512220046, "lon": -114.79912066118413, "alt_km": 499.6164099363823, "timestamp": "2025-12-26T10:30:48.977121+00:00", "meta": {"OBJECT_NAME": "YAOGAN-47", "OBJECT_ID": "2025-289A", "EPOCH": "2025-12-20T02:21:43.539840", "MEAN_MOTION": 15.23243112, "ECCENTRICITY": 6.467e-05, "INCLINATION": 97.5265, "RA_OF_ASC_NODE": 59.2376, "ARG_OF_PERICENTER": 91.4531, "MEAN_ANOMALY": 268.678, "EPHEMERIS_TYPE": 0, "CLASSIFICATION_TYPE": "U", "NORAD_CAT_ID": 66988, "ELEMENT_SET_NO": 999, "REV_AT_EPOCH": 166, "BSTAR": 0.00010945697, "MEAN_MOTION_DOT": 2.52e-05, "MEAN_MOTION_DDOT": 0}, "tle": {"line1": "1 66988U 25289A   25354.09842060  .00002520  00000+0  10946-3 0  9992", "line2": "2 66988  97.5265  59.2376 0000646  91.4531 268.6780 15.23243112  1668"}}, "geometry": {"type": "Point", "coordinates": [-114.79912066118413, -2.9631907512220046]}}]}